[{"OBJECT_NAME":"GEESAT-3 02","OBJECT_ID":"2024-159B","EPOCH":"2026-03-09T22:45:04.115520","MEAN_MOTION":14.8381248,"ECCENTRICITY":0.00188552,"INCLINATION":49.9926,"RA_OF_ASC_NODE":183.54,"ARG_OF_PERICENTER":35.4495,"MEAN_ANOMALY":324.7693,"EPHEMERIS_TYPE":0,"CLASSIFICATION_TYPE":"U","NORAD_CAT_ID":61012,"ELEMENT_SET_NO":999,"REV_AT_EPOCH":8205,"BSTAR":0.00041202855,"MEAN_MOTION_DOT":3.232e-5,"MEAN_MOTION_DDOT":0},{"OBJECT_NAME":"KUIPER-00060","OBJECT_ID":"2025-134W","EPOCH":"2026-03-09T22:50:30.667776","MEAN_MOTION":14.82970555,"ECCENTRICITY":9.789e-5,"INCLINATION":51.9012,"RA_OF_ASC_NODE":219.5001,"ARG_OF_PERICENTER":171.3067,"MEAN_ANOMALY":188.7914,"EPHEMERIS_TYPE":0,"CLASSIFICATION_TYPE":"U","NORAD_CAT_ID":64520,"ELEMENT_SET_NO":999,"REV_AT_EPOCH":4027,"BSTAR":-0.015086156,"MEAN_MOTION_DOT":-0.00121718,"MEAN_MOTION_DDOT":0}]
